NORAD_CAT_ID,OBJECT_NAME,OBJECT_TYPE,EPOCH,MEAN_MOTION,ECCENTRICITY,INCLINATION,RA_OF_ASC_NODE,ARG_OF_PERICENTER,MEAN_ANOMALY,BSTAR,MEAN_MOTION_DOT,MEAN_MOTION_DDOT,TLE_LINE0,TLE_LINE1,TLE_LINE2,SEMIMAJOR_AXIS,PERIOD,APOGEE,PERIGEE,DECAYED
55749.0,STARLINK-5560,PAYLOAD,2023-05-15 19:09:48,14.98641093,0.0002983,69.9993,318.5986,270.7248,89.3569,-0.0047567,-0.00056847,0.0,0 STARLINK-5560,1 55749U 23028J   23135.79847458 -.00056847  00000-0 -47567-2 0  9994,2 55749  69.9993 318.5986 0002983 270.7248  89.3569 14.98641093 11927,6949.231,96.087,573.169,569.023,0.0
55749.0,STARLINK-5560,PAYLOAD,2023-05-15 22:22:02,14.9862955,0.0003187,69.9993,318.2617,272.4962,87.5832,-0.0046406,-0.00055457,0.0,0 STARLINK-5560,1 55749U 23028J   23135.93197452 -.00055457  00000-0 -46406-2 0  9999,2 55749  69.9993 318.2617 0003187 272.4962  87.5832 14.98629550 11943,6949.267,96.088,573.346,568.917,0.0
55749.0,STARLINK-5560,PAYLOAD,2023-05-16 12:47:14,14.98362866,0.0002641,69.9992,316.7466,272.2039,87.8818,-0.00057001,-6.893e-05,0.0,0 STARLINK-5560,1 55749U 23028J   23136.53280578 -.00006893  00000-0 -57001-3 0  9992,2 55749  69.9992 316.7466 0002641 272.2039  87.8818 14.98362866 12036,6950.091,96.105,573.792,570.121,0.0
55749.0,STARLINK-5560,PAYLOAD,2023-05-16 22:00:00,14.98314617,0.0002941,70.0009,315.7792,275.9195,354.1634,0.0024661,0.00029444,0.0,0 STARLINK-5560,1 55749U 23028J   23136.91667824  .00029444  00000-0  24661-2 0  9997,2 55749  70.0009 315.7792 0002941 275.9195 354.1634 14.98314617 12087,6950.24,96.108,574.15,570.061,0.0
55749.0,STARLINK-5560,PAYLOAD,2023-05-17 14:00:01,14.98354669,0.0002943,70.0009,314.0981,269.6815,355.4121,-0.0024868,-0.00029659,0.0,0 STARLINK-5560,1 55749U 23028J   23137.58335648 -.00029659  00000-0 -24868-2 0  9996,2 55749  70.0009 314.0981 0002943 269.6815 355.4121 14.98354669 12187,6950.117,96.105,574.027,569.936,0.0
55749.0,STARLINK-5560,PAYLOAD,2023-05-17 22:00:00,14.9831979,0.0002936,70.0007,313.2574,275.9961,346.5374,0.0020192,0.00024076,0.0,0 STARLINK-5560,1 55749U 23028J   23137.91667824  .00024076  00000-0  20192-2 0  9999,2 55749  70.0007 313.2574 0002936 275.9961 346.5374 14.98319790  1307,6950.224,96.108,574.13,570.049,0.0
55749.0,STARLINK-5560,PAYLOAD,2023-05-18 14:00:01,14.9835633,0.000298,70.0009,311.5762,268.1839,349.3005,-0.0028269,-0.00033684,0.0,0 STARLINK-5560,1 55749U 23028J   23138.58334491 -.00033684  00000-0 -28269-2 0  9994,2 55749  70.0009 311.5762 0002980 268.1839 349.3005 14.98356330 12334,6950.111,96.105,574.048,569.905,0.0
55749.0,STARLINK-5560,PAYLOAD,2023-05-18 22:00:00,14.98316212,0.0003027,70.0007,310.7356,274.1581,340.8318,0.0019867,0.00023684,0.0,0 STARLINK-5560,1 55749U 23028J   23138.91667824  .00023684  00000-0  19867-2 0  9991,2 55749  70.0007 310.7356 0003027 274.1581 340.8318 14.98316212  1309,6950.236,96.108,574.204,569.997,0.0
55749.0,STARLINK-5560,PAYLOAD,2023-05-19 04:52:37,14.98328881,0.0002858,69.9996,310.0139,270.4321,89.6511,1.9016e-05,1.34e-06,0.0,0 STARLINK-5560,1 55749U 23028J   23139.20320922  .00000134  00000-0  19016-4 0  9992,2 55749  69.9996 310.0139 0002858 270.4321  89.6511 14.98328881 12431,6950.196,96.107,574.048,570.075,0.0
55749.0,STARLINK-5560,PAYLOAD,2023-05-19 20:53:57,14.98330203,0.0002925,69.9998,308.3305,270.1601,89.9223,4.7323e-06,-3.7e-07,0.0,0 STARLINK-5560,1 55749U 23028J   23139.87080836 -.00000037  00000-0  47323-5 0  9998,2 55749  69.9998 308.3305 0002925 270.1601  89.9223 14.98330203 12536,6950.192,96.107,574.09,570.024,0.0
55749.0,STARLINK-5560,PAYLOAD,2023-05-20 04:54:38,14.98330948,0.0002932,70.0,307.4889,270.2861,89.7962,7.3507e-08,-9.2e-07,0.0,0 STARLINK-5560,1 55749U 23028J   23140.20460791 -.00000092  00000-0  73507-7 0  9995,2 55749  70.0000 307.4889 0002932 270.2861  89.7962 14.98330948 12586,6950.19,96.107,574.093,570.017,0.0
55749.0,STARLINK-5560,PAYLOAD,2023-05-20 17:43:42,14.98336955,0.0002941,69.9997,306.1418,269.3239,90.7583,6.3844e-05,6.69e-06,0.0,0 STARLINK-5560,1 55749U 23028J   23140.73868133  .00000669  00000-0  63844-4 0  9994,2 55749  69.9997 306.1418 0002941 269.3239  90.7583 14.98336955 12664,6950.171,96.107,574.08,569.992,0.0
55749.0,STARLINK-5560,PAYLOAD,2023-05-20 19:19:50,14.98337142,0.0002938,69.9997,305.9735,269.3954,90.6868,6.5079e-05,6.84e-06,0.0,0 STARLINK-5560,1 55749U 23028J   23140.80544090  .00000684  00000-0  65079-4 0  9994,2 55749  69.9997 305.9735 0002938 269.3954  90.6868 14.98337142 12678,6950.171,96.107,574.078,569.994,0.0
55749.0,STARLINK-5560,PAYLOAD,2023-05-21 11:21:11,14.98326129,0.0002887,69.9999,304.2901,269.3441,90.7387,-4.6269e-05,-6.45e-06,0.0,0 STARLINK-5560,1 55749U 23028J   23141.47305008 -.00000645  00000-0 -46269-4 0  9991,2 55749  69.9999 304.2901 0002887 269.3441  90.7387 14.98326129 12772,6950.205,96.107,574.076,570.063,0.0
55749.0,STARLINK-5560,PAYLOAD,2023-05-21 17:45:43,14.98325346,0.0002881,69.9998,303.6171,269.3256,90.7573,-4.6397e-05,-6.46e-06,0.0,0 STARLINK-5560,1 55749U 23028J   23141.74009120 -.00000646  00000-0 -46397-4 0  9990,2 55749  69.9998 303.6171 0002881 269.3256  90.7573 14.98325346 12813,6950.207,96.107,574.075,570.07,0.0
55749.0,STARLINK-5560,PAYLOAD,2023-05-22 09:47:04,14.98333976,0.0002983,69.9997,301.9343,269.0498,91.032,5.5926e-06,-2.6e-07,0.0,0 STARLINK-5560,1 55749U 23028J   23142.40768552 -.00000026  00000-0  55926-5 0  9995,2 55749  69.9997 301.9343 0002983 269.0498  91.0320 14.98333976 12915,6950.181,96.107,574.119,569.972,0.0
55749.0,STARLINK-5560,PAYLOAD,2023-05-22 21:00:00,14.98339113,0.000291,69.9998,300.7567,267.0547,93.0279,2.771e-05,2.38e-06,0.0,0 STARLINK-5560,1 55749U 23028J   23142.87500007  .00000238  00000-0  27710-4 0  9998,2 55749  69.9998 300.7567 0002910 267.0547  93.0279 14.98339113 12985,6950.165,96.106,574.052,570.007,0.0
55749.0,STARLINK-5560,PAYLOAD,2023-05-23 11:25:13,14.9832315,0.0002942,69.9996,299.2411,270.6626,89.4196,5.4702e-05,5.6e-06,0.0,0 STARLINK-5560,1 55749U 23028J   23143.47584897  .00000560  00000-0  54702-4 0  9993,2 55749  69.9996 299.2411 0002942 270.6626  89.4196 14.98323150 13078,6950.214,96.107,574.124,570.034,0.0
55749.0,STARLINK-5560,PAYLOAD,2023-05-23 19:25:53,14.98323917,0.0002941,69.9999,298.3997,269.3495,90.7327,5.4801e-05,5.61e-06,0.0,0 STARLINK-5560,1 55749U 23028J   23143.80964953  .00000561  00000-0  54801-4 0  9996,2 55749  69.9999 298.3997 0002941 269.3495  90.7327 14.98323917 13126,6950.212,96.107,574.121,570.033,0.0
55749.0,STARLINK-5560,PAYLOAD,2023-05-24 14:39:30,14.98331698,0.0002929,70.0001,296.3797,269.0194,91.0629,-4.2987e-05,-6.06e-06,0.0,0 STARLINK-5560,1 55749U 23028J   23144.61076800 -.00000606  00000-0 -42987-4 0  9995,2 55749  70.0001 296.3797 0002929 269.0194  91.0629 14.98331698 13245,6950.188,96.107,574.088,570.017,0.0
55749.0,STARLINK-5560,PAYLOAD,2023-05-25 17:53:47,14.98329463,0.0003152,69.9998,293.5174,270.4828,89.5969,3.1318e-05,2.81e-06,0.0,0 STARLINK-5560,1 55749U 23028J   23145.74568663  .00000281  00000-0  31318-4 0  9996,2 55749  69.9998 293.5174 0003152 270.4828  89.5969 14.98329463 13419,6950.195,96.107,574.25,569.869,0.0
55749.0,STARLINK-5560,PAYLOAD,2023-05-25 19:29:55,14.98331042,0.0003142,69.9998,293.3491,270.5121,89.5678,4.7246e-05,4.71e-06,0.0,0 STARLINK-5560,1 55749U 23028J   23145.81244507  .00000471  00000-0  47246-4 0  9990,2 55749  69.9998 293.3491 0003142 270.5121  89.5678 14.98331042 13429,6950.19,96.107,574.238,569.871,0.0
55749.0,STARLINK-5560,PAYLOAD,2023-05-26 13:07:24,14.9832801,0.0003122,69.9999,291.4972,270.4303,89.6498,2.0586e-05,1.53e-06,0.0,0 STARLINK-5560,1 55749U 23028J   23146.54680761  .00000153  00000-0  20586-4 0  9992,2 55749  69.9999 291.4972 0003122 270.4303  89.6498 14.98328010 13536,6950.199,96.107,574.234,569.894,0.0
55749.0,STARLINK-5560,PAYLOAD,2023-05-26 17:55:48,14.98330454,0.0003146,69.9999,290.9918,269.7067,90.3732,1.0992e-05,3.8e-07,0.0,0 STARLINK-5560,1 55749U 23028J   23146.74708628  .00000038  00000-0  10992-4 0  9999,2 55749  69.9999 290.9918 0003146 269.7067  90.3732 14.98330454 13562,6950.191,96.107,574.243,569.87,0.0
55749.0,STARLINK-5560,PAYLOAD,2023-05-26 19:31:56,14.98331255,0.0003145,70.0,290.8235,269.7889,90.291,1.9255e-05,1.37e-06,0.0,0 STARLINK-5560,1 55749U 23028J   23146.81384547  .00000137  00000-0  19255-4 0  9998,2 55749  70.0000 290.8235 0003145 269.7889  90.2910 14.98331255 13578,6950.189,96.107,574.24,569.868,0.0
55749.0,STARLINK-5560,PAYLOAD,2023-05-27 19:33:57,14.9833146,0.0003205,70.0001,288.2991,271.2025,88.8767,2.7277e-06,-6e-07,0.0,0 STARLINK-5560,1 55749U 23028J   23147.81524490 -.00000060  00000-0  27277-5 0  9992,2 55749  70.0001 288.2991 0003205 271.2025  88.8767 14.98331460 13724,6950.188,96.107,574.281,569.826,0.0
55749.0,STARLINK-5560,PAYLOAD,2023-05-28 19:35:57,14.98335809,0.0003227,70.0002,285.7744,271.0756,89.0034,6.4285e-05,6.74e-06,0.0,0 STARLINK-5560,1 55749U 23028J   23148.81663880  .00000674  00000-0  64285-4 0  9999,2 55749  70.0002 285.7744 0003227 271.0756  89.0034 14.98335809 13873,6950.175,96.107,574.283,569.797,0.0
55749.0,STARLINK-5560,PAYLOAD,2023-05-29 02:00:30,14.98332678,0.0003196,70.0004,285.1011,271.632,88.4473,1.7272e-05,1.13e-06,0.0,0 STARLINK-5560,1 55749U 23028J   23149.08368132  .00000113  00000-0  17272-4 0  9993,2 55749  70.0004 285.1011 0003196 271.6320  88.4473 14.98332678 13910,6950.185,96.107,574.271,569.828,0.0
55749.0,STARLINK-5560,PAYLOAD,2023-05-29 14:49:34,14.9833187,0.0003176,70.0004,283.7546,271.5163,88.5632,6.3778e-06,-1.7e-07,0.0,0 STARLINK-5560,1 55749U 23028J   23149.61776124 -.00000017  00000-0  63778-5 0  9993,2 55749  70.0004 283.7546 0003176 271.5163  88.5632 14.98331870 13998,6950.187,96.107,574.259,569.845,0.0
55749.0,STARLINK-5560,PAYLOAD,2023-05-29 18:01:50,14.98331481,0.000316,70.0005,283.4185,269.2274,90.8523,1.1456e-05,4.4e-07,0.0,0 STARLINK-5560,1 55749U 23028J   23149.75128098  .00000044  00000-0  11456-4 0  9993,2 55749  70.0005 283.4185 0003160 269.2274  90.8523 14.98331481 14012,6950.188,96.107,574.25,569.857,0.0
